[{"OBJECT_NAME":"STARLINK-11651 [DTC]","OBJECT_ID":"2025-085A","EPOCH":"2026-02-15T22:20:01.565952","MEAN_MOTION":15.70885968,"ECCENTRICITY":0.00014922,"INCLINATION":42.9994,"RA_OF_ASC_NODE":49.2214,"ARG_OF_PERICENTER":237.5897,"MEAN_ANOMALY":122.4826,"EPHEMERIS_TYPE":0,"CLASSIFICATION_TYPE":"U","NORAD_CAT_ID":63664,"ELEMENT_SET_NO":999,"REV_AT_EPOCH":4683,"BSTAR":0.0016249471,"MEAN_MOTION_DOT":0.00213921,"MEAN_MOTION_DDOT":0},{"OBJECT_NAME":"STARLINK-11672 [DTC]","OBJECT_ID":"2025-085B","EPOCH":"2026-02-15T09:59:55.062528","MEAN_MOTION":15.70881222,"ECCENTRICITY":0.00010296,"INCLINATION":42.9989,"RA_OF_ASC_NODE":52.2471,"ARG_OF_PERICENTER":298.0167,"MEAN_ANOMALY":62.0597,"EPHEMERIS_TYPE":0,"CLASSIFICATION_TYPE":"U","NORAD_CAT_ID":63665,"ELEMENT_SET_NO":999,"REV_AT_EPOCH":4735,"BSTAR":0.0024627146,"MEAN_MOTION_DOT":0.0032896,"MEAN_MOTION_DDOT":0},{"OBJECT_NAME":"STARLINK-11664 [DTC]","OBJECT_ID":"2025-085C","EPOCH":"2026-02-15T09:53:46.208832","MEAN_MOTION":15.70925078,"ECCENTRICITY":0.00011593,"INCLINATION":43.0001,"RA_OF_ASC_NODE":53.1049,"ARG_OF_PERICENTER":276.8379,"MEAN_ANOMALY":83.2357,"EPHEMERIS_TYPE":0,"CLASSIFICATION_TYPE":"U","NORAD_CAT_ID":63666,"ELEMENT_SET_NO":999,"REV_AT_EPOCH":4674,"BSTAR":0.0022538452,"MEAN_MOTION_DOT":0.00300529,"MEAN_MOTION_DDOT":0},{"OBJECT_NAME":"STARLINK-11666 [DTC]","OBJECT_ID":"2025-085D","EPOCH":"2026-02-15T22:04:54.797088","MEAN_MOTION":15.71268392,"ECCENTRICITY":0.00032765,"INCLINATION":42.999,"RA_OF_ASC_NODE":50.0294,"ARG_OF_PERICENTER":214.2601,"MEAN_ANOMALY":145.8056,"EPHEMERIS_TYPE":0,"CLASSIFICATION_TYPE":"U","NORAD_CAT_ID":63667,"ELEMENT_SET_NO":999,"REV_AT_EPOCH":4672,"BSTAR":0.0022000638,"MEAN_MOTION_DOT":0.00297522,"MEAN_MOTION_DDOT":0},{"OBJECT_NAME":"STARLINK-11663 [DTC]","OBJECT_ID":"2025-085E","EPOCH":"2026-02-15T09:44:48.405984","MEAN_MOTION":15.70936709,"ECCENTRICITY":0.00024139,"INCLINATION":43.0009,"RA_OF_ASC_NODE":53.0561,"ARG_OF_PERICENTER":291.055,"MEAN_ANOMALY":69.006,"EPHEMERIS_TYPE":0,"CLASSIFICATION_TYPE":"U","NORAD_CAT_ID":63668,"ELEMENT_SET_NO":999,"REV_AT_EPOCH":4674,"BSTAR":0.0020132868,"MEAN_MOTION_DOT":0.00267459,"MEAN_MOTION_DDOT":0},{"OBJECT_NAME":"STARLINK-11595 [DTC]","OBJECT_ID":"2025-085F","EPOCH":"2026-02-15T09:37:10.035840","MEAN_MOTION":15.70959646,"ECCENTRICITY":0.00013439,"INCLINATION":42.9995,"RA_OF_ASC_NODE":53.0108,"ARG_OF_PERICENTER":294.9146,"MEAN_ANOMALY":65.1582,"EPHEMERIS_TYPE":0,"CLASSIFICATION_TYPE":"U","NORAD_CAT_ID":63669,"ELEMENT_SET_NO":999,"REV_AT_EPOCH":4738,"BSTAR":0.003051622,"MEAN_MOTION_DOT":0.00413307,"MEAN_MOTION_DDOT":0},{"OBJECT_NAME":"STARLINK-11599 [DTC]","OBJECT_ID":"2025-085G","EPOCH":"2026-02-15T09:29:31.135200","MEAN_MOTION":15.70945301,"ECCENTRICITY":0.00016739,"INCLINATION":42.9994,"RA_OF_ASC_NODE":52.969,"ARG_OF_PERICENTER":284.6527,"MEAN_ANOMALY":75.4155,"EPHEMERIS_TYPE":0,"CLASSIFICATION_TYPE":"U","NORAD_CAT_ID":63670,"ELEMENT_SET_NO":999,"REV_AT_EPOCH":4673,"BSTAR":0.0022514734,"MEAN_MOTION_DOT":0.00300462,"MEAN_MOTION_DDOT":0},{"OBJECT_NAME":"STARLINK-11603 [DTC]","OBJECT_ID":"2025-085H","EPOCH":"2026-02-15T09:21:52.345152","MEAN_MOTION":15.70917553,"ECCENTRICITY":0.00014146,"INCLINATION":42.9996,"RA_OF_ASC_NODE":52.9251,"ARG_OF_PERICENTER":279.5401,"MEAN_ANOMALY":80.5306,"EPHEMERIS_TYPE":0,"CLASSIFICATION_TYPE":"U","NORAD_CAT_ID":63671,"ELEMENT_SET_NO":999,"REV_AT_EPOCH":4673,"BSTAR":0.0018037865,"MEAN_MOTION_DOT":0.00238543,"MEAN_MOTION_DDOT":0},{"OBJECT_NAME":"STARLINK-11644 [DTC]","OBJECT_ID":"2025-085J","EPOCH":"2026-02-15T07:42:39.912192","MEAN_MOTION":15.70900398,"ECCENTRICITY":0.00021018,"INCLINATION":43,"RA_OF_ASC_NODE":53.2652,"ARG_OF_PERICENTER":264.8148,"MEAN_ANOMALY":95.248,"EPHEMERIS_TYPE":0,"CLASSIFICATION_TYPE":"U","NORAD_CAT_ID":63672,"ELEMENT_SET_NO":999,"REV_AT_EPOCH":4672,"BSTAR":0.0023312253,"MEAN_MOTION_DOT":0.00310932,"MEAN_MOTION_DDOT":0},{"OBJECT_NAME":"STARLINK-11634 [DTC]","OBJECT_ID":"2025-085K","EPOCH":"2026-02-15T09:06:35.248032","MEAN_MOTION":15.7090461,"ECCENTRICITY":0.00015124,"INCLINATION":42.9987,"RA_OF_ASC_NODE":52.8387,"ARG_OF_PERICENTER":292.4919,"MEAN_ANOMALY":67.5789,"EPHEMERIS_TYPE":0,"CLASSIFICATION_TYPE":"U","NORAD_CAT_ID":63673,"ELEMENT_SET_NO":999,"REV_AT_EPOCH":4673,"BSTAR":0.0021560137,"MEAN_MOTION_DOT":0.00286733,"MEAN_MOTION_DDOT":0},{"OBJECT_NAME":"STARLINK-11656 [DTC]","OBJECT_ID":"2025-085L","EPOCH":"2026-02-15T08:58:56.288640","MEAN_MOTION":15.70919949,"ECCENTRICITY":0.00016366,"INCLINATION":42.9994,"RA_OF_ASC_NODE":52.7931,"ARG_OF_PERICENTER":258.0575,"MEAN_ANOMALY":102.0109,"EPHEMERIS_TYPE":0,"CLASSIFICATION_TYPE":"U","NORAD_CAT_ID":63674,"ELEMENT_SET_NO":999,"REV_AT_EPOCH":4673,"BSTAR":0.0019237473,"MEAN_MOTION_DOT":0.00254972,"MEAN_MOTION_DDOT":0},{"OBJECT_NAME":"STARLINK-11655 [DTC]","OBJECT_ID":"2025-085M","EPOCH":"2026-02-15T10:22:50.744928","MEAN_MOTION":15.70867694,"ECCENTRICITY":0.00019465,"INCLINATION":43.002,"RA_OF_ASC_NODE":52.3681,"ARG_OF_PERICENTER":267.8973,"MEAN_ANOMALY":92.1671,"EPHEMERIS_TYPE":0,"CLASSIFICATION_TYPE":"U","NORAD_CAT_ID":63675,"ELEMENT_SET_NO":999,"REV_AT_EPOCH":4674,"BSTAR":0.0020099862,"MEAN_MOTION_DOT":0.00266202,"MEAN_MOTION_DDOT":0},{"OBJECT_NAME":"STARLINK-11661 [DTC]","OBJECT_ID":"2025-085N","EPOCH":"2026-02-15T11:46:46.303680","MEAN_MOTION":15.70886255,"ECCENTRICITY":0.00011491,"INCLINATION":42.9988,"RA_OF_ASC_NODE":51.9433,"ARG_OF_PERICENTER":6.1202,"MEAN_ANOMALY":353.968,"EPHEMERIS_TYPE":0,"CLASSIFICATION_TYPE":"U","NORAD_CAT_ID":63676,"ELEMENT_SET_NO":999,"REV_AT_EPOCH":4740,"BSTAR":0.0023067084,"MEAN_MOTION_DOT":0.00307344,"MEAN_MOTION_DDOT":0},{"OBJECT_NAME":"STARLINK-33816","OBJECT_ID":"2025-085P","EPOCH":"2026-02-15T08:42:34.299072","MEAN_MOTION":15.27588061,"ECCENTRICITY":0.00013368,"INCLINATION":43.0026,"RA_OF_ASC_NODE":157.1531,"ARG_OF_PERICENTER":247.6375,"MEAN_ANOMALY":112.4335,"EPHEMERIS_TYPE":0,"CLASSIFICATION_TYPE":"U","NORAD_CAT_ID":63677,"ELEMENT_SET_NO":999,"REV_AT_EPOCH":4555,"BSTAR":0.00078213467,"MEAN_MOTION_DOT":0.00021328,"MEAN_MOTION_DDOT":0},{"OBJECT_NAME":"STARLINK-33861","OBJECT_ID":"2025-085Q","EPOCH":"2026-02-15T11:58:17.320512","MEAN_MOTION":15.27593924,"ECCENTRICITY":0.00020272,"INCLINATION":43.0027,"RA_OF_ASC_NODE":156.454,"ARG_OF_PERICENTER":286.7703,"MEAN_ANOMALY":73.2926,"EPHEMERIS_TYPE":0,"CLASSIFICATION_TYPE":"U","NORAD_CAT_ID":63678,"ELEMENT_SET_NO":999,"REV_AT_EPOCH":4546,"BSTAR":0.0011984157,"MEAN_MOTION_DOT":0.00032877,"MEAN_MOTION_DDOT":0},{"OBJECT_NAME":"STARLINK-33850","OBJECT_ID":"2025-085R","EPOCH":"2026-02-15T08:22:12.724032","MEAN_MOTION":15.27616955,"ECCENTRICITY":0.00041508,"INCLINATION":43.0012,"RA_OF_ASC_NODE":157.0466,"ARG_OF_PERICENTER":285.614,"MEAN_ANOMALY":74.4253,"EPHEMERIS_TYPE":0,"CLASSIFICATION_TYPE":"U","NORAD_CAT_ID":63679,"ELEMENT_SET_NO":999,"REV_AT_EPOCH":4544,"BSTAR":0.0017106256,"MEAN_MOTION_DOT":0.00047174,"MEAN_MOTION_DDOT":0}]
