STARLINK-11651 [DTC]    
1 63664U 25085A   26046.93057368  .00213921  00000+0  16249-2 0  9995
2 63664  42.9994  49.2214 0001492 237.5897 122.4826 15.70885968 46836
STARLINK-11672 [DTC]    
1 63665U 25085B   26046.41660952  .00328960  00000+0  24627-2 0  9997
2 63665  42.9989  52.2471 0001029 298.0167  62.0597 15.70881222 47359
STARLINK-11664 [DTC]    
1 63666U 25085C   26046.41234038  .00300529  00000+0  22538-2 0  9990
2 63666  43.0001  53.1049 0001159 276.8379  83.2357 15.70925078 46740
STARLINK-11666 [DTC]    
1 63667U 25085D   26046.92007867  .00297522  00000+0  22001-2 0  9998
2 63667  42.9990  50.0294 0003276 214.2601 145.8056 15.71268392 46729
STARLINK-11663 [DTC]    
1 63668U 25085E   26046.40611581  .00267459  00000+0  20133-2 0  9996
2 63668  43.0009  53.0561 0002413 291.0550  69.0060 15.70936709 46748
STARLINK-11595 [DTC]    
1 63669U 25085F   26046.40081060  .00413307  00000+0  30516-2 0  9991
2 63669  42.9995  53.0108 0001343 294.9146  65.1582 15.70959646 47384
STARLINK-11599 [DTC]    
1 63670U 25085G   26046.39549925  .00300462  00000+0  22515-2 0  9997
2 63670  42.9994  52.9690 0001673 284.6527  75.4155 15.70945301 46735
STARLINK-11603 [DTC]    
1 63671U 25085H   26046.39018918  .00238543  00000+0  18038-2 0  9996
2 63671  42.9996  52.9251 0001414 279.5401  80.5306 15.70917553 46731
STARLINK-11644 [DTC]    
1 63672U 25085J   26046.32129528  .00310932  00000+0  23312-2 0  9994
2 63672  43.0000  53.2652 0002101 264.8148  95.2480 15.70900398 46722
STARLINK-11634 [DTC]    
1 63673U 25085K   26046.37957463  .00286733  00000+0  21560-2 0  9991
2 63673  42.9987  52.8387 0001512 292.4919  67.5789 15.70904610 46739
STARLINK-11656 [DTC]    
1 63674U 25085L   26046.37426260  .00254972  00000+0  19237-2 0  9996
2 63674  42.9994  52.7931 0001636 258.0575 102.0109 15.70919949 46737
STARLINK-11655 [DTC]    
1 63675U 25085M   26046.43253177  .00266202  00000+0  20100-2 0  9999
2 63675  43.0020  52.3681 0001946 267.8973  92.1671 15.70867694 46745
STARLINK-11661 [DTC]    
1 63676U 25085N   26046.49081370  .00307344  00000+0  23067-2 0  9998
2 63676  42.9988  51.9433 0001149   6.1202 353.9680 15.70886255 47407
STARLINK-33816          
1 63677U 25085P   26046.36289698  .00021328  00000+0  78213-3 0  9997
2 63677  43.0026 157.1531 0001336 247.6375 112.4335 15.27588061 45557
STARLINK-33861          
1 63678U 25085Q   26046.49881158  .00032877  00000+0  11984-2 0  9993
2 63678  43.0027 156.4540 0002027 286.7703  73.2926 15.27593924 45462
STARLINK-33850          
1 63679U 25085R   26046.34875838  .00047174  00000+0  17106-2 0  9994
2 63679  43.0012 157.0466 0004150 285.6140  74.4253 15.27616955 45447
